STARLINK-36332          
1 67862U 26034N   26069.29159952  .00249698  00000+0  12267-2 0  9996
2 67862  53.1584 208.2347 0001118 151.5244 208.5840 15.80974185  4038
STARLINK-36835          
1 67863U 26034P   26069.29084781  .00210026  00000+0  10379-2 0  9999
2 67863  53.1587 208.2286 0000616  40.9720 319.1349 15.80956463  4038
STARLINK-36831          
1 67864U 26034Q   26069.29009911  .00382320  00000+0  18432-2 0  9997
2 67864  53.1586 208.2234 0000618 133.5579 226.5495 15.81023023  4035
STARLINK-36738          
1 67865U 26034R   26069.28934796  .00329231  00000+0  15995-2 0  9998
2 67865  53.1587 208.2180 0001538 160.2992 199.8091 15.80998639  4032
STARLINK-36780          
1 67866U 26034S   26069.22537910  .00574560  00000+0  26983-2 0  9996
2 67866  53.1591 208.5287 0001703 170.6142 189.4913 15.81090395  4025
STARLINK-36761          
1 67867U 26034T   26068.97175464  .00249130  00000+0  12235-2 0  9997
2 67867  53.1594 209.7917 0000796 107.4812 252.6298 15.80981570  3981
STARLINK-36762          
1 67868U 26034U   26068.97100649  .00279298  00000+0  13663-2 0  9995
2 67868  53.1591 209.7873 0000880  73.3062 286.8058 15.80984732  3988
STARLINK-36779          
1 67869U 26034V   26069.28634694  .00499147  00000+0  23712-2 0  9996
2 67869  53.1589 208.1969 0001102 156.3706 203.7368 15.81036659  4036
STARLINK-36770          
1 67870U 26034W   26069.28484680  .00501777  00000+0  23820-2 0  9999
2 67870  53.1592 208.1868 0001413 145.0500 215.0616 15.81046093  4037
STARLINK-36769          
1 67871U 26034X   26068.96950339  .00397417  00000+0  19112-2 0  9996
2 67871  53.1594 209.7757 0000730  45.3612 314.7471 15.81038036  3988
STARLINK-36786          
1 67872U 26034Y   26069.22087658  .00373481  00000+0  18027-2 0  9991
2 67872  53.1593 208.4991 0000638 123.7011 236.4073 15.81021306  4021
STARLINK-36783          
1 67873U 26034Z   26068.96725461  .00453917  00000+0  21660-2 0  9993
2 67873  53.1593 209.7602 0000720  55.7064 304.4027 15.81057666  3986
