CCSDS_OMM_VERS = 2.0
CREATION_DATE  = 
ORIGINATOR     = 

OBJECT_NAME    = STARLINK-36332
OBJECT_ID      = 2026-034N
CENTER_NAME    = EARTH
REF_FRAME      = TEME
TIME_SYSTEM    = UTC
MEAN_ELEMENT_THEORY = SGP/SGP4

EPOCH          = 2026-03-10T06:59:54.198528
MEAN_MOTION    = 15.80974185
ECCENTRICITY   = .00011185
INCLINATION    = 53.1584
RA_OF_ASC_NODE = 208.2347
ARG_OF_PERICENTER = 151.5244
MEAN_ANOMALY   = 208.5840

EPHEMERIS_TYPE = 0
CLASSIFICATION_TYPE = U
NORAD_CAT_ID   = 67862
ELEMENT_SET_NO = 999
REV_AT_EPOCH   = 403
BSTAR          = .12266698E-2
MEAN_MOTION_DOT = .249698E-2
MEAN_MOTION_DDOT = 0

CCSDS_OMM_VERS = 2.0
CREATION_DATE  = 
ORIGINATOR     = 

OBJECT_NAME    = STARLINK-36835
OBJECT_ID      = 2026-034P
CENTER_NAME    = EARTH
REF_FRAME      = TEME
TIME_SYSTEM    = UTC
MEAN_ELEMENT_THEORY = SGP/SGP4

EPOCH          = 2026-03-10T06:58:49.250784
MEAN_MOTION    = 15.80956463
ECCENTRICITY   = .00006164
INCLINATION    = 53.1587
RA_OF_ASC_NODE = 208.2286
ARG_OF_PERICENTER = 40.9720
MEAN_ANOMALY   = 319.1349

EPHEMERIS_TYPE = 0
CLASSIFICATION_TYPE = U
NORAD_CAT_ID   = 67863
ELEMENT_SET_NO = 999
REV_AT_EPOCH   = 403
BSTAR          = .10379467E-2
MEAN_MOTION_DOT = .210026E-2
MEAN_MOTION_DDOT = 0

CCSDS_OMM_VERS = 2.0
CREATION_DATE  = 
ORIGINATOR     = 

OBJECT_NAME    = STARLINK-36831
OBJECT_ID      = 2026-034Q
CENTER_NAME    = EARTH
REF_FRAME      = TEME
TIME_SYSTEM    = UTC
MEAN_ELEMENT_THEORY = SGP/SGP4

EPOCH          = 2026-03-10T06:57:44.563104
MEAN_MOTION    = 15.81023023
ECCENTRICITY   = .0000618
INCLINATION    = 53.1586
RA_OF_ASC_NODE = 208.2234
ARG_OF_PERICENTER = 133.5579
MEAN_ANOMALY   = 226.5495

EPHEMERIS_TYPE = 0
CLASSIFICATION_TYPE = U
NORAD_CAT_ID   = 67864
ELEMENT_SET_NO = 999
REV_AT_EPOCH   = 403
BSTAR          = .18432084E-2
MEAN_MOTION_DOT = .38232E-2
MEAN_MOTION_DDOT = 0

CCSDS_OMM_VERS = 2.0
CREATION_DATE  = 
ORIGINATOR     = 

OBJECT_NAME    = STARLINK-36738
OBJECT_ID      = 2026-034R
CENTER_NAME    = EARTH
REF_FRAME      = TEME
TIME_SYSTEM    = UTC
MEAN_ELEMENT_THEORY = SGP/SGP4

EPOCH          = 2026-03-10T06:56:39.663744
MEAN_MOTION    = 15.80998639
ECCENTRICITY   = .00015382
INCLINATION    = 53.1587
RA_OF_ASC_NODE = 208.2180
ARG_OF_PERICENTER = 160.2992
MEAN_ANOMALY   = 199.8091

EPHEMERIS_TYPE = 0
CLASSIFICATION_TYPE = U
NORAD_CAT_ID   = 67865
ELEMENT_SET_NO = 999
REV_AT_EPOCH   = 403
BSTAR          = .15995316E-2
MEAN_MOTION_DOT = .329231E-2
MEAN_MOTION_DDOT = 0

CCSDS_OMM_VERS = 2.0
CREATION_DATE  = 
ORIGINATOR     = 

OBJECT_NAME    = STARLINK-36780
OBJECT_ID      = 2026-034S
CENTER_NAME    = EARTH
REF_FRAME      = TEME
TIME_SYSTEM    = UTC
MEAN_ELEMENT_THEORY = SGP/SGP4

EPOCH          = 2026-03-10T05:24:32.754240
MEAN_MOTION    = 15.81090395
ECCENTRICITY   = .0001703
INCLINATION    = 53.1591
RA_OF_ASC_NODE = 208.5287
ARG_OF_PERICENTER = 170.6142
MEAN_ANOMALY   = 189.4913

EPHEMERIS_TYPE = 0
CLASSIFICATION_TYPE = U
NORAD_CAT_ID   = 67866
ELEMENT_SET_NO = 999
REV_AT_EPOCH   = 402
BSTAR          = .26983065E-2
MEAN_MOTION_DOT = .57456E-2
MEAN_MOTION_DDOT = 0

CCSDS_OMM_VERS = 2.0
CREATION_DATE  = 
ORIGINATOR     = 

OBJECT_NAME    = STARLINK-36761
OBJECT_ID      = 2026-034T
CENTER_NAME    = EARTH
REF_FRAME      = TEME
TIME_SYSTEM    = UTC
MEAN_ELEMENT_THEORY = SGP/SGP4

EPOCH          = 2026-03-09T23:19:19.600896
MEAN_MOTION    = 15.80981570
ECCENTRICITY   = .00007966
INCLINATION    = 53.1594
RA_OF_ASC_NODE = 209.7917
ARG_OF_PERICENTER = 107.4812
MEAN_ANOMALY   = 252.6298

EPHEMERIS_TYPE = 0
CLASSIFICATION_TYPE = U
NORAD_CAT_ID   = 67867
ELEMENT_SET_NO = 999
REV_AT_EPOCH   = 398
BSTAR          = .12235383E-2
MEAN_MOTION_DOT = .24913E-2
MEAN_MOTION_DDOT = 0

CCSDS_OMM_VERS = 2.0
CREATION_DATE  = 
ORIGINATOR     = 

OBJECT_NAME    = STARLINK-36762
OBJECT_ID      = 2026-034U
CENTER_NAME    = EARTH
REF_FRAME      = TEME
TIME_SYSTEM    = UTC
MEAN_ELEMENT_THEORY = SGP/SGP4

EPOCH          = 2026-03-09T23:18:14.960736
MEAN_MOTION    = 15.80984732
ECCENTRICITY   = .00008805
INCLINATION    = 53.1591
RA_OF_ASC_NODE = 209.7873
ARG_OF_PERICENTER = 73.3062
MEAN_ANOMALY   = 286.8058

EPHEMERIS_TYPE = 0
CLASSIFICATION_TYPE = U
NORAD_CAT_ID   = 67868
ELEMENT_SET_NO = 999
REV_AT_EPOCH   = 398
BSTAR          = .13662615E-2
MEAN_MOTION_DOT = .279298E-2
MEAN_MOTION_DDOT = 0

CCSDS_OMM_VERS = 2.0
CREATION_DATE  = 
ORIGINATOR     = 

OBJECT_NAME    = STARLINK-36779
OBJECT_ID      = 2026-034V
CENTER_NAME    = EARTH
REF_FRAME      = TEME
TIME_SYSTEM    = UTC
MEAN_ELEMENT_THEORY = SGP/SGP4

EPOCH          = 2026-03-10T06:52:20.375616
MEAN_MOTION    = 15.81036659
ECCENTRICITY   = .00011029
INCLINATION    = 53.1589
RA_OF_ASC_NODE = 208.1969
ARG_OF_PERICENTER = 156.3706
MEAN_ANOMALY   = 203.7368

EPHEMERIS_TYPE = 0
CLASSIFICATION_TYPE = U
NORAD_CAT_ID   = 67869
ELEMENT_SET_NO = 999
REV_AT_EPOCH   = 403
BSTAR          = .23711961E-2
MEAN_MOTION_DOT = .499147E-2
MEAN_MOTION_DDOT = 0

CCSDS_OMM_VERS = 2.0
CREATION_DATE  = 
ORIGINATOR     = 

OBJECT_NAME    = STARLINK-36770
OBJECT_ID      = 2026-034W
CENTER_NAME    = EARTH
REF_FRAME      = TEME
TIME_SYSTEM    = UTC
MEAN_ELEMENT_THEORY = SGP/SGP4

EPOCH          = 2026-03-10T06:50:10.763520
MEAN_MOTION    = 15.81046093
ECCENTRICITY   = .00014136
INCLINATION    = 53.1592
RA_OF_ASC_NODE = 208.1868
ARG_OF_PERICENTER = 145.0500
MEAN_ANOMALY   = 215.0616

EPHEMERIS_TYPE = 0
CLASSIFICATION_TYPE = U
NORAD_CAT_ID   = 67870
ELEMENT_SET_NO = 999
REV_AT_EPOCH   = 403
BSTAR          = .23819787E-2
MEAN_MOTION_DOT = .501777E-2
MEAN_MOTION_DDOT = 0

CCSDS_OMM_VERS = 2.0
CREATION_DATE  = 
ORIGINATOR     = 

OBJECT_NAME    = STARLINK-36769
OBJECT_ID      = 2026-034X
CENTER_NAME    = EARTH
REF_FRAME      = TEME
TIME_SYSTEM    = UTC
MEAN_ELEMENT_THEORY = SGP/SGP4

EPOCH          = 2026-03-09T23:16:05.092896
MEAN_MOTION    = 15.81038036
ECCENTRICITY   = .00007301
INCLINATION    = 53.1594
RA_OF_ASC_NODE = 209.7757
ARG_OF_PERICENTER = 45.3612
MEAN_ANOMALY   = 314.7471

EPHEMERIS_TYPE = 0
CLASSIFICATION_TYPE = U
NORAD_CAT_ID   = 67871
ELEMENT_SET_NO = 999
REV_AT_EPOCH   = 398
BSTAR          = .19111666E-2
MEAN_MOTION_DOT = .397417E-2
MEAN_MOTION_DDOT = 0

CCSDS_OMM_VERS = 2.0
CREATION_DATE  = 
ORIGINATOR     = 

OBJECT_NAME    = STARLINK-36786
OBJECT_ID      = 2026-034Y
CENTER_NAME    = EARTH
REF_FRAME      = TEME
TIME_SYSTEM    = UTC
MEAN_ELEMENT_THEORY = SGP/SGP4

EPOCH          = 2026-03-10T05:18:03.736512
MEAN_MOTION    = 15.81021306
ECCENTRICITY   = .00006384
INCLINATION    = 53.1593
RA_OF_ASC_NODE = 208.4991
ARG_OF_PERICENTER = 123.7011
MEAN_ANOMALY   = 236.4073

EPHEMERIS_TYPE = 0
CLASSIFICATION_TYPE = U
NORAD_CAT_ID   = 67872
ELEMENT_SET_NO = 999
REV_AT_EPOCH   = 402
BSTAR          = .18026944E-2
MEAN_MOTION_DOT = .373481E-2
MEAN_MOTION_DDOT = 0

CCSDS_OMM_VERS = 2.0
CREATION_DATE  = 
ORIGINATOR     = 

OBJECT_NAME    = STARLINK-36783
OBJECT_ID      = 2026-034Z
CENTER_NAME    = EARTH
REF_FRAME      = TEME
TIME_SYSTEM    = UTC
MEAN_ELEMENT_THEORY = SGP/SGP4

EPOCH          = 2026-03-09T23:12:50.798304
MEAN_MOTION    = 15.81057666
ECCENTRICITY   = .00007206
INCLINATION    = 53.1593
RA_OF_ASC_NODE = 209.7602
ARG_OF_PERICENTER = 55.7064
MEAN_ANOMALY   = 304.4027

EPHEMERIS_TYPE = 0
CLASSIFICATION_TYPE = U
NORAD_CAT_ID   = 67873
ELEMENT_SET_NO = 999
REV_AT_EPOCH   = 398
BSTAR          = .21659679E-2
MEAN_MOTION_DOT = .453917E-2
MEAN_MOTION_DDOT = 0

